AEROCUBE 7C             
1 43043U 17071G   19014.21981493  .00002273  00000-0  65656-4 0  9998
2 43043  51.6393  92.4416 0004577 317.8425  42.2207 15.40162486 62082
CHEFSAT                 
1 43044U 17071H   19014.24095252  .00002961  00000-0  77855-4 0  9999
2 43044  51.6399  89.6510 0004471 316.5691  43.4941 15.41989949 62121
ASGARDIA 1              
1 43049U 17071N   19014.18399140  .00001602  00000-0  49005-4 0  9997
2 43049  51.6397  92.2184 0002262 343.2954  16.7956 15.40277717 62071
ISARA                   
1 43050U 17071P   19014.21231651  .00003401  00000-0  89033-4 0  9999
2 43050  51.6391  90.1858 0002105 339.6498  20.4403 15.41619594 62107
FAUNA                   
1 43052U 17071R   19014.21414953  .00002213  00000-0  63518-4 0  9999
2 43052  51.6396  91.6844 0002121 339.9532  20.1369 15.40486559 62082
CORVUS BC3              
1 43118U 18004H   19013.73127496  .00000526  00000-0  25693-4 0  9995
2 43118  97.5079  81.4551 0012157  80.4340 279.8269 15.22586174 55740
MICROMAS-2A             
1 43131U 18004W   19013.85089828  .00001266  00000-0  55968-4 0  9999
2 43131  97.5095  81.9545 0011176  82.7818 277.4689 15.23537169 55781
CICERO 7                
1 43143U 18004AJ  19014.15633920  .00000939  00000-0  41982-4 0  9991
2 43143  97.5086  82.4522 0009310  90.1165 270.1139 15.23784943 55841
GOMX4-B                 
1 43196U 18015E   19013.88109341  .00000317  00000-0  16049-4 0  9991
2 43196  97.3705 143.8755 0019873 132.5767 227.7150 15.23784047 52617
GOMX4-A                 
1 43197U 18015F   19014.02023919  .00000331  00000-0  16574-4 0  9994
2 43197  97.3713 144.0252 0020419 132.1511 318.9286 15.23877215 52649
1KUNS-PF                
1 43466U 98067NP  19014.13567610  .00010021  00000-0  12411-3 0  9993
2 43466  51.6398  40.6825 0000437  64.3052 295.7987 15.60749843 38584
UBAKUSAT                
1 43467U 98067NQ  19014.10248814  .00006515  00000-0  87586-4 0  9992
2 43467  51.6393  41.9576 0002018 187.0074 173.0891 15.59269330 38578
BATSU-CS1 (IRAZU)       
1 43468U 98067NR  19013.48011476  .00012164  00000-0  14310-3 0  9996
2 43468  51.6392  43.0516 0000649  52.8309 307.2744 15.61863458138486
CUBERRT                 
1 43546U 98067NU  19013.57016947  .00016492  00000-0  21363-3 0  9995
2 43546  51.6391  46.6434 0005161 269.9201  90.1200 15.59015148 28593
TEMPEST-D               
1 43547U 98067NV  19013.89452806  .00002675  00000-0  44276-4 0  9996
2 43547  51.6399  46.5559 0005385 261.8055  98.2326 15.56242664 28304
RAINCUBE                
1 43548U 98067NW  19013.63271776  .00008012  00000-0  11232-3 0  9990
2 43548  51.6392  47.0597 0005144 274.3991  85.6413 15.57758357 28722
HALOSAT                 
1 43549U 98067NX  19013.56873883  .00007865  00000-0  11038-3 0  9999
2 43549  51.6393  47.3845 0005102 276.9480  83.0932 15.57758850 28274
ENDUROSAT ONE           
1 43551U 98067NZ  19014.08790297  .00008758  00000-0  11859-3 0  9990
2 43551  51.6400  44.0994 0005580 287.8191  72.2193 15.58556635 28777
EQUISAT                 
1 43552U 98067PA  19013.53619551  .00007252  00000-0  10120-3 0  9991
2 43552  51.6402  47.1674 0005849 283.7832  76.2509 15.58052077 28646
AEROCUBE 12A            
1 43556U 18046C   19014.23625917  .00000605  00000-0  34459-4 0  9992
2 43556  51.6439  82.0632 0008113 232.1469 127.8777 15.28205677 27780
AEROCUBE 12B            
1 43557U 18046D   19013.65132703  .00000918  00000-0  45755-4 0  9992
2 43557  51.6439  84.9069 0008156 230.2664 129.7598 15.28138953 27648
UITMSAT-1               
1 43589U 98067PD  19014.23487151  .00007830  00000-0  10981-3 0  9995
2 43589  51.6388  44.3259 0005300 297.0348  63.0103 15.57785556 24485
MAYA-1                  
1 43590U 98067PE  19013.39821200  .00006657  00000-0  94328-4 0  9994
2 43590  51.6392  48.4897 0005403 294.1726  65.8701 15.57795309 24286
BHUTAN-1                
1 43591U 98067PF  19014.09975495  .00007832  00000-0  10955-3 0  9998
2 43591  51.6397  44.9260 0005536 298.7690  61.2745 15.57854539 24395
SIRIUSSAT-1             
1 43595U 98067PG  19013.57018261  .00007816  00000-0  11158-3 0  9991
2 43595  51.6391  48.1336 0002877 241.7083 118.3619 15.57305649 23488
SIRIUSSAT-2             
1 43596U 98067PH  19013.90542280  .00007102  00000-0  10258-3 0  9990
2 43596  51.6404  46.6372 0003471 246.8156 113.2471 15.57154328 23537
TANUSHA-3               
1 43597U 98067PJ  19013.94168174  .00009080  00000-0  12640-3 0  9995
2 43597  51.6379  46.0982 0002957 264.7380  95.3275 15.57759553 23540
SURFSAT                 
1 43614U 18070B   19013.81242576  .00001892  00000-0  52669-4 0  9995
2 43614  93.0390 299.2362 0016281 177.2853 182.8491 15.36797855 18466
CP-7 (DAVE)             
1 43615U 18070C   19013.81270933  .00001710  00000-0  47671-4 0  9990
2 43615  93.0391 299.2371 0016340 177.1521 182.9828 15.36771029 18465
ELFIN-B                 
1 43616U 18070D   19013.86591557  .00002291  00000-0  63184-4 0  9996
2 43616  93.0351 299.2124 0017187 180.8224 179.3004 15.37052167 18472
ELFIN-A                 
1 43617U 18070E   19013.86330501  .00002462  00000-0  67848-4 0  9998
2 43617  93.0405 299.3049 0016441 176.6916 183.4449 15.37088693 18475
DEBRISSAT-1             
1 43621U 98067PM  19014.13979572  .00106942  00000-0  76567-3 0  9990
2 43621  51.6455  39.2531 0002854   1.7353 358.3646 15.72881916 18647
CUBEBEL-1 (BSUSAT-1)    
1 43666U 18083E   19013.32742222  .00000857  00000-0  46397-4 0  9996
2 43666  97.5334  38.7845 0015850  17.7910  39.7574 15.17240558 11574
DEBRISSAT-2             
1 43680U 98067PR  19013.94183188  .00010736  00000-0  14982-3 0  9991
2 43680  51.6401  46.1086 0002506 284.1394  75.9320 15.57467162 32284
CICERO 10               
1 43690U 18088A   19013.87928132  .00000753  00000-0  33631-4 0  9996
2 43690  85.0371  61.0594 0017382  63.4376 296.8643 15.19351368  9697
IRVINE01                
1 43693U 18088D   19013.89214098  .00001581  00000-0  69789-4 0  9993
2 43693  85.0347  60.9476 0020488  50.6201 309.6851 15.20682282  9683
PROXIMA I               
1 43694U 18088E   19014.13485500  .00000616  00000-0  25711-4 0  9995
2 43694  85.0313  60.7238 0021064  41.4597 318.8238 15.21095603  9720
PROXIMA II              
1 43696U 18088G   19013.93722804  .00000617  00000-0  25772-4 0  9993
2 43696  85.0314  60.8546 0021127  42.0786 318.2073 15.21101001  9690
FACSAT-1                
1 43721U 18096C   19014.20102884  .00000889  00000-0  37524-4 0  9991
2 43721  97.4795  84.2125 0019084 153.6131 206.6084 15.25821109  7023
CENTAURI-2              
1 43722U 18096D   19014.19841434  .00001300  00000-0  53333-4 0  9996
2 43722  97.4796  84.2167 0019184 154.5556 205.6631 15.25925557  7011
LUME 1                  
1 43908U 18111AJ  19014.20441494  .00000669  00000-0  30381-4 0  9999
2 43908  97.2997 283.6233 0021838 175.6244 184.5189 15.23989026  2763
